[{"COMMENT":"GENERATED VIA SPACETRACK.ORG API","ORIGINATOR":"18 SPCS","NORAD_CAT_ID":"43476","OBJECT_NAME":"GRACE-FO 1","OBJECT_TYPE":"PAYLOAD","CLASSIFICATION_TYPE":"U","INTLDES":"18047A","EPOCH":"2023-12-27 22:45:56","EPOCH_MICROSECONDS":"100672","MEAN_MOTION":"15.27702663","ECCENTRICITY":"0.0014594","INCLINATION":"88.983","RA_OF_ASC_NODE":"322.7721","ARG_OF_PERICENTER":"24.606","MEAN_ANOMALY":"335.5883","EPHEMERIS_TYPE":"0","ELEMENT_SET_NO":"999","REV_AT_EPOCH":"31156","BSTAR":"0.00017083","MEAN_MOTION_DOT":"0.00004664","MEAN_MOTION_DDOT":"0","FILE":"4147095","TLE_LINE0":"0 GRACE-FO 1","TLE_LINE1":"1 43476U 18047A   23361.94856598  .00004664  00000-0  17083-3 0  9995","TLE_LINE2":"2 43476  88.9830 322.7721 0014594  24.6060 335.5883 15.27702663311567","OBJECT_ID":"2018-047A","OBJECT_NUMBER":"43476","SEMIMAJOR_AXIS":"6860.819","PERIOD":"94.259","APOGEE":"492.697","PERIGEE":"472.671","DECAYED":"0"},{"COMMENT":"GENERATED VIA SPACETRACK.ORG API","ORIGINATOR":"18 SPCS","NORAD_CAT_ID":"43476","OBJECT_NAME":"GRACE-FO 1","OBJECT_TYPE":"PAYLOAD","CLASSIFICATION_TYPE":"U","INTLDES":"18047A","EPOCH":"2023-12-28 11:20:32","EPOCH_MICROSECONDS":"54208","MEAN_MOTION":"15.2770759","ECCENTRICITY":"0.0014484","INCLINATION":"88.9832","RA_OF_ASC_NODE":"322.7004","ARG_OF_PERICENTER":"22.8097","MEAN_ANOMALY":"337.3793","EPHEMERIS_TYPE":"0","ELEMENT_SET_NO":"999","REV_AT_EPOCH":"31164","BSTAR":"0.00017061","MEAN_MOTION_DOT":"0.00004658","MEAN_MOTION_DDOT":"0","FILE":"4147472","TLE_LINE0":"0 GRACE-FO 1","TLE_LINE1":"1 43476U 18047A   23362.47259322  .00004658  00000-0  17061-3 0  9995","TLE_LINE2":"2 43476  88.9832 322.7004 0014484  22.8097 337.3793 15.27707590311644","OBJECT_ID":"2018-047A","OBJECT_NUMBER":"43476","SEMIMAJOR_AXIS":"6860.804","PERIOD":"94.259","APOGEE":"492.606","PERIGEE":"472.732","DECAYED":"0"},{"COMMENT":"GENERATED VIA SPACETRACK.ORG API","ORIGINATOR":"18 SPCS","NORAD_CAT_ID":"43476","OBJECT_NAME":"GRACE-FO 1","OBJECT_TYPE":"PAYLOAD","CLASSIFICATION_TYPE":"U","INTLDES":"18047A","EPOCH":"2023-12-28 14:29:11","EPOCH_MICROSECONDS":"15808","MEAN_MOTION":"15.27708746","ECCENTRICITY":"0.0014458","INCLINATION":"88.9833","RA_OF_ASC_NODE":"322.6825","ARG_OF_PERICENTER":"22.3618","MEAN_ANOMALY":"337.8259","EPHEMERIS_TYPE":"0","ELEMENT_SET_NO":"999","REV_AT_EPOCH":"31166","BSTAR":"0.00016864","MEAN_MOTION_DOT":"0.00004605","MEAN_MOTION_DDOT":"0","FILE":"4147674","TLE_LINE0":"0 GRACE-FO 1","TLE_LINE1":"1 43476U 18047A   23362.60359972  .00004605  00000-0  16864-3 0  9994","TLE_LINE2":"2 43476  88.9833 322.6825 0014458  22.3618 337.8259 15.27708746311668","OBJECT_ID":"2018-047A","OBJECT_NUMBER":"43476","SEMIMAJOR_AXIS":"6860.801","PERIOD":"94.259","APOGEE":"492.585","PERIGEE":"472.746","DECAYED":"0"},{"COMMENT":"GENERATED VIA SPACETRACK.ORG API","ORIGINATOR":"18 SPCS","NORAD_CAT_ID":"43476","OBJECT_NAME":"GRACE-FO 1","OBJECT_TYPE":"PAYLOAD","CLASSIFICATION_TYPE":"U","INTLDES":"18047A","EPOCH":"2023-12-28 22:20:48","EPOCH_MICROSECONDS":"387840","MEAN_MOTION":"15.2771098","ECCENTRICITY":"0.00144","INCLINATION":"88.9834","RA_OF_ASC_NODE":"322.6378","ARG_OF_PERICENTER":"21.2061","MEAN_ANOMALY":"338.9783","EPHEMERIS_TYPE":"0","ELEMENT_SET_NO":"999","REV_AT_EPOCH":"31171","BSTAR":"0.00015308","MEAN_MOTION_DOT":"0.00004183","MEAN_MOTION_DDOT":"0","FILE":"4147928","TLE_LINE0":"0 GRACE-FO 1","TLE_LINE1":"1 43476U 18047A   23362.93111560  .00004183  00000-0  15308-3 0  9992","TLE_LINE2":"2 43476  88.9834 322.6378 0014400  21.2061 338.9783 15.27710980311712","OBJECT_ID":"2018-047A","OBJECT_NUMBER":"43476","SEMIMAJOR_AXIS":"6860.794","PERIOD":"94.259","APOGEE":"492.538","PERIGEE":"472.779","DECAYED":"0"},{"COMMENT":"GENERATED VIA SPACETRACK.ORG API","ORIGINATOR":"18 SPCS","NORAD_CAT_ID":"43476","OBJECT_NAME":"GRACE-FO 1","OBJECT_TYPE":"PAYLOAD","CLASSIFICATION_TYPE":"U","INTLDES":"18047A","EPOCH":"2023-12-29 14:04:03","EPOCH_MICROSECONDS":"2304","MEAN_MOTION":"15.27717261","ECCENTRICITY":"0.0014283","INCLINATION":"88.9836","RA_OF_ASC_NODE":"322.5481","ARG_OF_PERICENTER":"18.9132","MEAN_ANOMALY":"341.2645","EPHEMERIS_TYPE":"0","ELEMENT_SET_NO":"999","REV_AT_EPOCH":"31181","BSTAR":"0.00016611","MEAN_MOTION_DOT":"0.00004537","MEAN_MOTION_DDOT":"0","FILE":"4148460","TLE_LINE0":"0 GRACE-FO 1","TLE_LINE1":"1 43476U 18047A   23363.58614586  .00004537  00000-0  16611-3 0  9991","TLE_LINE2":"2 43476  88.9836 322.5481 0014283  18.9132 341.2645 15.27717261311813","OBJECT_ID":"2018-047A","OBJECT_NUMBER":"43476","SEMIMAJOR_AXIS":"6860.775","PERIOD":"94.258","APOGEE":"492.439","PERIGEE":"472.841","DECAYED":"0"},{"COMMENT":"GENERATED VIA SPACETRACK.ORG API","ORIGINATOR":"18 SPCS","NORAD_CAT_ID":"43476","OBJECT_NAME":"GRACE-FO 1","OBJECT_TYPE":"PAYLOAD","CLASSIFICATION_TYPE":"U","INTLDES":"18047A","EPOCH":"2023-12-29 20:21:20","EPOCH_MICROSECONDS":"785536","MEAN_MOTION":"15.27719663","ECCENTRICITY":"0.0014236","INCLINATION":"88.9836","RA_OF_ASC_NODE":"322.5123","ARG_OF_PERICENTER":"17.9754","MEAN_ANOMALY":"342.1996","EPHEMERIS_TYPE":"0","ELEMENT_SET_NO":"999","REV_AT_EPOCH":"31185","BSTAR":"0.00016699","MEAN_MOTION_DOT":"0.00004561","MEAN_MOTION_DDOT":"0","FILE":"4148572","TLE_LINE0":"0 GRACE-FO 1","TLE_LINE1":"1 43476U 18047A   23363.84815724  .00004561  00000-0  16699-3 0  9990","TLE_LINE2":"2 43476  88.9836 322.5123 0014236  17.9754 342.1996 15.27719663311854","OBJECT_ID":"2018-047A","OBJECT_NUMBER":"43476","SEMIMAJOR_AXIS":"6860.768","PERIOD":"94.258","APOGEE":"492.400","PERIGEE":"472.866","DECAYED":"0"},{"COMMENT":"GENERATED VIA SPACETRACK.ORG API","ORIGINATOR":"18 SPCS","NORAD_CAT_ID":"43476","OBJECT_NAME":"GRACE-FO 1","OBJECT_TYPE":"PAYLOAD","CLASSIFICATION_TYPE":"U","INTLDES":"18047A","EPOCH":"2023-12-29 21:55:40","EPOCH_MICROSECONDS":"228320","MEAN_MOTION":"15.27719736","ECCENTRICITY":"0.0014228","INCLINATION":"88.9837","RA_OF_ASC_NODE":"322.5033","ARG_OF_PERICENTER":"17.7354","MEAN_ANOMALY":"342.4389","EPHEMERIS_TYPE":"0","ELEMENT_SET_NO":"999","REV_AT_EPOCH":"31186","BSTAR":"0.00015792","MEAN_MOTION_DOT":"0.00004315","MEAN_MOTION_DDOT":"0","FILE":"4148761","TLE_LINE0":"0 GRACE-FO 1","TLE_LINE1":"1 43476U 18047A   23363.91366005  .00004315  00000-0  15792-3 0  9991","TLE_LINE2":"2 43476  88.9837 322.5033 0014228  17.7354 342.4389 15.27719736311861","OBJECT_ID":"2018-047A","OBJECT_NUMBER":"43476","SEMIMAJOR_AXIS":"6860.768","PERIOD":"94.258","APOGEE":"492.394","PERIGEE":"472.871","DECAYED":"0"},{"COMMENT":"GENERATED VIA SPACETRACK.ORG API","ORIGINATOR":"18 SPCS","NORAD_CAT_ID":"43476","OBJECT_NAME":"GRACE-FO 1","OBJECT_TYPE":"PAYLOAD","CLASSIFICATION_TYPE":"U","INTLDES":"18047A","EPOCH":"2023-12-30 13:38:54","EPOCH_MICROSECONDS":"522240","MEAN_MOTION":"15.27725394","ECCENTRICITY":"0.0014092","INCLINATION":"88.9838","RA_OF_ASC_NODE":"322.4137","ARG_OF_PERICENTER":"15.3758","MEAN_ANOMALY":"344.7917","EPHEMERIS_TYPE":"0","ELEMENT_SET_NO":"999","REV_AT_EPOCH":"31196","BSTAR":"0.00016147","MEAN_MOTION_DOT":"0.00004412","MEAN_MOTION_DDOT":"0","FILE":"4149332","TLE_LINE0":"0 GRACE-FO 1","TLE_LINE1":"1 43476U 18047A   23364.56868660  .00004412  00000-0  16147-3 0  9990","TLE_LINE2":"2 43476  88.9838 322.4137 0014092  15.3758 344.7917 15.27725394311967","OBJECT_ID":"2018-047A","OBJECT_NUMBER":"43476","SEMIMAJOR_AXIS":"6860.751","PERIOD":"94.258","APOGEE":"492.284","PERIGEE":"472.948","DECAYED":"0"},{"COMMENT":"GENERATED VIA SPACETRACK.ORG API","ORIGINATOR":"18 SPCS","NORAD_CAT_ID":"43476","OBJECT_NAME":"GRACE-FO 1","OBJECT_TYPE":"PAYLOAD","CLASSIFICATION_TYPE":"U","INTLDES":"18047A","EPOCH":"2023-12-30 21:30:31","EPOCH_MICROSECONDS":"586688","MEAN_MOTION":"15.27727586","ECCENTRICITY":"0.001402","INCLINATION":"88.9838","RA_OF_ASC_NODE":"322.3689","ARG_OF_PERICENTER":"14.1999","MEAN_ANOMALY":"345.9642","EPHEMERIS_TYPE":"0","ELEMENT_SET_NO":"999","REV_AT_EPOCH":"31201","BSTAR":"0.0001478","MEAN_MOTION_DOT":"0.00004041","MEAN_MOTION_DDOT":"0","FILE":"4149598","TLE_LINE0":"0 GRACE-FO 1","TLE_LINE1":"1 43476U 18047A   23364.89619892  .00004041  00000-0  14780-3 0  9996","TLE_LINE2":"2 43476  88.9838 322.3689 0014020  14.1999 345.9642 15.27727586312013","OBJECT_ID":"2018-047A","OBJECT_NUMBER":"43476","SEMIMAJOR_AXIS":"6860.744","PERIOD":"94.258","APOGEE":"492.228","PERIGEE":"472.990","DECAYED":"0"},{"COMMENT":"GENERATED VIA SPACETRACK.ORG API","ORIGINATOR":"18 SPCS","NORAD_CAT_ID":"43476","OBJECT_NAME":"GRACE-FO 1","OBJECT_TYPE":"PAYLOAD","CLASSIFICATION_TYPE":"U","INTLDES":"18047A","EPOCH":"2023-12-31 02:13:29","EPOCH_MICROSECONDS":"802720","MEAN_MOTION":"15.27729189","ECCENTRICITY":"0.0013966","INCLINATION":"88.9838","RA_OF_ASC_NODE":"322.3421","ARG_OF_PERICENTER":"13.5061","MEAN_ANOMALY":"346.6559","EPHEMERIS_TYPE":"0","ELEMENT_SET_NO":"999","REV_AT_EPOCH":"31204","BSTAR":"0.00014987","MEAN_MOTION_DOT":"0.00004097","MEAN_MOTION_DDOT":"0","FILE":"4149641","TLE_LINE0":"0 GRACE-FO 1","TLE_LINE1":"1 43476U 18047A   23365.09270605  .00004097  00000-0  14987-3 0  9994","TLE_LINE2":"2 43476  88.9838 322.3421 0013966  13.5061 346.6559 15.27729189312047","OBJECT_ID":"2018-047A","OBJECT_NUMBER":"43476","SEMIMAJOR_AXIS":"6860.739","PERIOD":"94.258","APOGEE":"492.186","PERIGEE":"473.023","DECAYED":"0"}]